0 BREEZE-M DEB (TANK)
1 28477U 04041C   13282.21114500  .00000045  00000-0  49092-1 0  5818
2 28477 048.0650 000.9923 6799328 295.2025 012.7071 02.23817023 73348
0 BREEZE-M DEB (TANK)
1 28477U 04041C   13286.23377586  .00000061  00000-0  37562-1 0  5827
2 28477 048.0715 000.1628 6799111 295.9640 013.9003 02.23817955 73436
0 BREEZE-M DEB (TANK)
1 28477U 04041C   13289.88053243 -.00000014  00000-0  13497-1 0  5833
2 28477 048.0776 359.4112 6798789 296.6536 072.2427 02.23818925 73518
0 BREEZE-M DEB (TANK)
1 28477U 04041C   13293.99468127 -.00000086  00000-0  12584-1 0  5847
2 28477 048.0845 358.5636 6798516 297.4298 147.2002 02.23819094 73608
